ONEWEB-0020             
1 45133U 20008C   24319.49276673 -.00000622  00000+0 -18178-2 0  9997
2 45133  87.8895 151.6915 0001357  82.7954 277.3328 13.10371740233201
ONEWEB-0021             
1 45134U 20008D   24318.59145114  .00000050  00000+0  10639-3 0  9991
2 45134  87.8905 151.8926 0001680  84.2652 275.8667 13.10377161233481
ONEWEB-0023             
1 45136U 20008F   24319.06201437 -.00000088  00000+0 -28947-3 0  9991
2 45136  87.8902 151.7873 0001501  97.5022 262.6276 13.10375071232858
ONEWEB-0024             
1 45137U 20008G   24319.49110671 -.00000636  00000+0 -18590-2 0  9999
2 45137  87.8890 151.6743 0001540  83.0042 277.1260 13.10371209233073
ONEWEB-0025             
1 45138U 20008H   24318.59309374  .00000137  00000+0  35623-3 0  9991
2 45138  87.8893 151.8532 0002029  91.2502 268.8858 13.10369899232532
ONEWEB-0026             
1 45139U 20008J   24318.76902034 -.00000351  00000+0 -10259-2 0  9990
2 45139  87.8887 136.7009 0001348  85.1477 274.9805 13.11418621235030
ONEWEB-0028             
1 45140U 20008K   24319.48706821  .00000534  00000+0  14708-2 0  9992
2 45140  87.8881 136.5917 0002121  96.2364 263.9006 13.11418749232646
ONEWEB-0032             
1 45141U 20008L   24319.44797110  .00000659  00000+0  18525-2 0  9999
2 45141  87.8890 151.7320 0001716  88.8423 271.2901 13.10376277233236
